<?xml version="1.0" encoding="UTF-8"?>
<ndm xmlns:xsi="http://www.w3.org/2001/XMLSchema-instance" xsi:noNamespaceSchemaLocation="https://sanaregistry.org/r/ndmxml_unqualified/ndmxml-2.0.0-master-2.0.xsd">
<omm id="CCSDS_OMM_VERS" version="2.0">
<header><CREATION_DATE/><ORIGINATOR/></header><body><segment><metadata><OBJECT_NAME>KUIPER-00124</OBJECT_NAME><OBJECT_ID>2025-228G</OBJECT_ID><CENTER_NAME>EARTH</CENTER_NAME><REF_FRAME>TEME</REF_FRAME><TIME_SYSTEM>UTC</TIME_SYSTEM><MEAN_ELEMENT_THEORY>SGP4</MEAN_ELEMENT_THEORY></metadata><data><meanElements><EPOCH>2025-11-24T16:48:59.662656</EPOCH><MEAN_MOTION>15.34671516</MEAN_MOTION><ECCENTRICITY>.00045808</ECCENTRICITY><INCLINATION>51.8793</INCLINATION><RA_OF_ASC_NODE>107.6470</RA_OF_ASC_NODE><ARG_OF_PERICENTER>320.3545</ARG_OF_PERICENTER><MEAN_ANOMALY>39.7105</MEAN_ANOMALY></meanElements><tleParameters><EPHEMERIS_TYPE>0</EPHEMERIS_TYPE><CLASSIFICATION_TYPE>U</CLASSIFICATION_TYPE><NORAD_CAT_ID>65953</NORAD_CAT_ID><ELEMENT_SET_NO>999</ELEMENT_SET_NO><REV_AT_EPOCH>764</REV_AT_EPOCH><BSTAR>.64498926E-3</BSTAR><MEAN_MOTION_DOT>.21691E-3</MEAN_MOTION_DOT><MEAN_MOTION_DDOT>0</MEAN_MOTION_DDOT></tleParameters></data></segment></body></omm>
<omm id="CCSDS_OMM_VERS" version="2.0">
<header><CREATION_DATE/><ORIGINATOR/></header><body><segment><metadata><OBJECT_NAME>KUIPER-00125</OBJECT_NAME><OBJECT_ID>2025-228H</OBJECT_ID><CENTER_NAME>EARTH</CENTER_NAME><REF_FRAME>TEME</REF_FRAME><TIME_SYSTEM>UTC</TIME_SYSTEM><MEAN_ELEMENT_THEORY>SGP4</MEAN_ELEMENT_THEORY></metadata><data><meanElements><EPOCH>2025-11-24T16:28:14.013984</EPOCH><MEAN_MOTION>15.35567491</MEAN_MOTION><ECCENTRICITY>.00057188</ECCENTRICITY><INCLINATION>51.8781</INCLINATION><RA_OF_ASC_NODE>107.5469</RA_OF_ASC_NODE><ARG_OF_PERICENTER>297.4033</ARG_OF_PERICENTER><MEAN_ANOMALY>62.6371</MEAN_ANOMALY></meanElements><tleParameters><EPHEMERIS_TYPE>0</EPHEMERIS_TYPE><CLASSIFICATION_TYPE>U</CLASSIFICATION_TYPE><NORAD_CAT_ID>65954</NORAD_CAT_ID><ELEMENT_SET_NO>999</ELEMENT_SET_NO><REV_AT_EPOCH>764</REV_AT_EPOCH><BSTAR>.11303178E-2</BSTAR><MEAN_MOTION_DOT>.39519E-3</MEAN_MOTION_DOT><MEAN_MOTION_DDOT>0</MEAN_MOTION_DDOT></tleParameters></data></segment></body></omm>
<omm id="CCSDS_OMM_VERS" version="2.0">
<header><CREATION_DATE/><ORIGINATOR/></header><body><segment><metadata><OBJECT_NAME>KUIPER-00126</OBJECT_NAME><OBJECT_ID>2025-228J</OBJECT_ID><CENTER_NAME>EARTH</CENTER_NAME><REF_FRAME>TEME</REF_FRAME><TIME_SYSTEM>UTC</TIME_SYSTEM><MEAN_ELEMENT_THEORY>SGP4</MEAN_ELEMENT_THEORY></metadata><data><meanElements><EPOCH>2025-11-25T00:00:04.000320</EPOCH><MEAN_MOTION>15.16475704</MEAN_MOTION><ECCENTRICITY>.00056581</ECCENTRICITY><INCLINATION>51.8905</INCLINATION><RA_OF_ASC_NODE>107.4446</RA_OF_ASC_NODE><ARG_OF_PERICENTER>310.9027</ARG_OF_PERICENTER><MEAN_ANOMALY>339.6062</MEAN_ANOMALY></meanElements><tleParameters><EPHEMERIS_TYPE>0</EPHEMERIS_TYPE><CLASSIFICATION_TYPE>U</CLASSIFICATION_TYPE><NORAD_CAT_ID>65955</NORAD_CAT_ID><ELEMENT_SET_NO>999</ELEMENT_SET_NO><REV_AT_EPOCH>542</REV_AT_EPOCH><BSTAR>-.68315123E-1</BSTAR><MEAN_MOTION_DOT>-.1234834E-1</MEAN_MOTION_DOT><MEAN_MOTION_DDOT>0</MEAN_MOTION_DDOT></tleParameters></data></segment></body></omm>
<omm id="CCSDS_OMM_VERS" version="2.0">
<header><CREATION_DATE/><ORIGINATOR/></header><body><segment><metadata><OBJECT_NAME>KUIPER-00127</OBJECT_NAME><OBJECT_ID>2025-228K</OBJECT_ID><CENTER_NAME>EARTH</CENTER_NAME><REF_FRAME>TEME</REF_FRAME><TIME_SYSTEM>UTC</TIME_SYSTEM><MEAN_ELEMENT_THEORY>SGP4</MEAN_ELEMENT_THEORY></metadata><data><meanElements><EPOCH>2025-11-25T00:00:04.000320</EPOCH><MEAN_MOTION>15.23574308</MEAN_MOTION><ECCENTRICITY>.00041998</ECCENTRICITY><INCLINATION>51.8858</INCLINATION><RA_OF_ASC_NODE>106.6266</RA_OF_ASC_NODE><ARG_OF_PERICENTER>299.8305</ARG_OF_PERICENTER><MEAN_ANOMALY>84.8558</MEAN_ANOMALY></meanElements><tleParameters><EPHEMERIS_TYPE>0</EPHEMERIS_TYPE><CLASSIFICATION_TYPE>U</CLASSIFICATION_TYPE><NORAD_CAT_ID>65956</NORAD_CAT_ID><ELEMENT_SET_NO>999</ELEMENT_SET_NO><REV_AT_EPOCH>555</REV_AT_EPOCH><BSTAR>-.65420157E-1</BSTAR><MEAN_MOTION_DOT>-.145543E-1</MEAN_MOTION_DOT><MEAN_MOTION_DDOT>0</MEAN_MOTION_DDOT></tleParameters></data></segment></body></omm>
<omm id="CCSDS_OMM_VERS" version="2.0">
<header><CREATION_DATE/><ORIGINATOR/></header><body><segment><metadata><OBJECT_NAME>KUIPER-00128</OBJECT_NAME><OBJECT_ID>2025-228L</OBJECT_ID><CENTER_NAME>EARTH</CENTER_NAME><REF_FRAME>TEME</REF_FRAME><TIME_SYSTEM>UTC</TIME_SYSTEM><MEAN_ELEMENT_THEORY>SGP4</MEAN_ELEMENT_THEORY></metadata><data><meanElements><EPOCH>2025-11-24T19:36:50.505408</EPOCH><MEAN_MOTION>15.35241930</MEAN_MOTION><ECCENTRICITY>.00059225</ECCENTRICITY><INCLINATION>51.8788</INCLINATION><RA_OF_ASC_NODE>106.9358</RA_OF_ASC_NODE><ARG_OF_PERICENTER>296.7238</ARG_OF_PERICENTER><MEAN_ANOMALY>63.3141</MEAN_ANOMALY></meanElements><tleParameters><EPHEMERIS_TYPE>0</EPHEMERIS_TYPE><CLASSIFICATION_TYPE>U</CLASSIFICATION_TYPE><NORAD_CAT_ID>65957</NORAD_CAT_ID><ELEMENT_SET_NO>999</ELEMENT_SET_NO><REV_AT_EPOCH>766</REV_AT_EPOCH><BSTAR>.12470221E-2</BSTAR><MEAN_MOTION_DOT>.43207E-3</MEAN_MOTION_DOT><MEAN_MOTION_DDOT>0</MEAN_MOTION_DDOT></tleParameters></data></segment></body></omm>
<omm id="CCSDS_OMM_VERS" version="2.0">
<header><CREATION_DATE/><ORIGINATOR/></header><body><segment><metadata><OBJECT_NAME>KUIPER-00129</OBJECT_NAME><OBJECT_ID>2025-228M</OBJECT_ID><CENTER_NAME>EARTH</CENTER_NAME><REF_FRAME>TEME</REF_FRAME><TIME_SYSTEM>UTC</TIME_SYSTEM><MEAN_ELEMENT_THEORY>SGP4</MEAN_ELEMENT_THEORY></metadata><data><meanElements><EPOCH>2025-11-24T19:31:23.464128</EPOCH><MEAN_MOTION>15.35618040</MEAN_MOTION><ECCENTRICITY>.00062075</ECCENTRICITY><INCLINATION>51.8785</INCLINATION><RA_OF_ASC_NODE>106.9109</RA_OF_ASC_NODE><ARG_OF_PERICENTER>288.5770</ARG_OF_PERICENTER><MEAN_ANOMALY>71.4542</MEAN_ANOMALY></meanElements><tleParameters><EPHEMERIS_TYPE>0</EPHEMERIS_TYPE><CLASSIFICATION_TYPE>U</CLASSIFICATION_TYPE><NORAD_CAT_ID>65958</NORAD_CAT_ID><ELEMENT_SET_NO>999</ELEMENT_SET_NO><REV_AT_EPOCH>766</REV_AT_EPOCH><BSTAR>.14995675E-2</BSTAR><MEAN_MOTION_DOT>.52737E-3</MEAN_MOTION_DOT><MEAN_MOTION_DDOT>0</MEAN_MOTION_DDOT></tleParameters></data></segment></body></omm>
<omm id="CCSDS_OMM_VERS" version="2.0">
<header><CREATION_DATE/><ORIGINATOR/></header><body><segment><metadata><OBJECT_NAME>KUIPER-00130</OBJECT_NAME><OBJECT_ID>2025-228N</OBJECT_ID><CENTER_NAME>EARTH</CENTER_NAME><REF_FRAME>TEME</REF_FRAME><TIME_SYSTEM>UTC</TIME_SYSTEM><MEAN_ELEMENT_THEORY>SGP4</MEAN_ELEMENT_THEORY></metadata><data><meanElements><EPOCH>2025-11-24T19:43:18.470784</EPOCH><MEAN_MOTION>15.35048895</MEAN_MOTION><ECCENTRICITY>.00052439</ECCENTRICITY><INCLINATION>51.8779</INCLINATION><RA_OF_ASC_NODE>106.9547</RA_OF_ASC_NODE><ARG_OF_PERICENTER>308.5027</ARG_OF_PERICENTER><MEAN_ANOMALY>51.5488</MEAN_ANOMALY></meanElements><tleParameters><EPHEMERIS_TYPE>0</EPHEMERIS_TYPE><CLASSIFICATION_TYPE>U</CLASSIFICATION_TYPE><NORAD_CAT_ID>65959</NORAD_CAT_ID><ELEMENT_SET_NO>999</ELEMENT_SET_NO><REV_AT_EPOCH>766</REV_AT_EPOCH><BSTAR>.82606129E-3</BSTAR><MEAN_MOTION_DOT>.28255E-3</MEAN_MOTION_DOT><MEAN_MOTION_DDOT>0</MEAN_MOTION_DDOT></tleParameters></data></segment></body></omm>
<omm id="CCSDS_OMM_VERS" version="2.0">
<header><CREATION_DATE/><ORIGINATOR/></header><body><segment><metadata><OBJECT_NAME>KUIPER-00134</OBJECT_NAME><OBJECT_ID>2025-228P</OBJECT_ID><CENTER_NAME>EARTH</CENTER_NAME><REF_FRAME>TEME</REF_FRAME><TIME_SYSTEM>UTC</TIME_SYSTEM><MEAN_ELEMENT_THEORY>SGP4</MEAN_ELEMENT_THEORY></metadata><data><meanElements><EPOCH>2025-11-24T19:45:39.671712</EPOCH><MEAN_MOTION>15.35158789</MEAN_MOTION><ECCENTRICITY>.00058542</ECCENTRICITY><INCLINATION>51.8781</INCLINATION><RA_OF_ASC_NODE>106.9657</RA_OF_ASC_NODE><ARG_OF_PERICENTER>306.3351</ARG_OF_PERICENTER><MEAN_ANOMALY>53.7094</MEAN_ANOMALY></meanElements><tleParameters><EPHEMERIS_TYPE>0</EPHEMERIS_TYPE><CLASSIFICATION_TYPE>U</CLASSIFICATION_TYPE><NORAD_CAT_ID>65960</NORAD_CAT_ID><ELEMENT_SET_NO>999</ELEMENT_SET_NO><REV_AT_EPOCH>766</REV_AT_EPOCH><BSTAR>.11710372E-2</BSTAR><MEAN_MOTION_DOT>.40427E-3</MEAN_MOTION_DOT><MEAN_MOTION_DDOT>0</MEAN_MOTION_DDOT></tleParameters></data></segment></body></omm>
<omm id="CCSDS_OMM_VERS" version="2.0">
<header><CREATION_DATE/><ORIGINATOR/></header><body><segment><metadata><OBJECT_NAME>KUIPER-00135</OBJECT_NAME><OBJECT_ID>2025-228Q</OBJECT_ID><CENTER_NAME>EARTH</CENTER_NAME><REF_FRAME>TEME</REF_FRAME><TIME_SYSTEM>UTC</TIME_SYSTEM><MEAN_ELEMENT_THEORY>SGP4</MEAN_ELEMENT_THEORY></metadata><data><meanElements><EPOCH>2025-11-24T16:38:26.816352</EPOCH><MEAN_MOTION>15.34988096</MEAN_MOTION><ECCENTRICITY>.00040171</ECCENTRICITY><INCLINATION>51.8787</INCLINATION><RA_OF_ASC_NODE>107.6022</RA_OF_ASC_NODE><ARG_OF_PERICENTER>300.1140</ARG_OF_PERICENTER><MEAN_ANOMALY>59.9447</MEAN_ANOMALY></meanElements><tleParameters><EPHEMERIS_TYPE>0</EPHEMERIS_TYPE><CLASSIFICATION_TYPE>U</CLASSIFICATION_TYPE><NORAD_CAT_ID>65961</NORAD_CAT_ID><ELEMENT_SET_NO>999</ELEMENT_SET_NO><REV_AT_EPOCH>764</REV_AT_EPOCH><BSTAR>.11717095E-2</BSTAR><MEAN_MOTION_DOT>.40218E-3</MEAN_MOTION_DOT><MEAN_MOTION_DDOT>0</MEAN_MOTION_DDOT></tleParameters></data></segment></body></omm>

</ndm>
